start=new Date('2022-06-14T00:00:00.000Z').valueOf();
sats=[{"OBJECT_TYPE":"PAYLOAD","TLE_LINE2":"2 48357  53.0546   8.7307 0001557  69.7334 290.3822 15.06409740 61905","ELEMENT_SET_NO":"999","COUNTRY_CODE":"US","SITE":"AFETR","EPHEMERIS_TYPE":"0","DECAY_DATE":null,"REF_FRAME":"TEME","LAUNCH_DATE":"2021-05-04","PERIOD":"95.592","TIME_SYSTEM":"UTC","MEAN_MOTION_DOT":"0.00002997","FILE":"3494795","NORAD_CAT_ID":"48357","SEMIMAJOR_AXIS":"6925.319","INCLINATION":"53.0546","OBJECT_ID":"2021-038E","MEAN_MOTION_DDOT":"0.0000000000000","CENTER_NAME":"EARTH","MEAN_MOTION":"15.06409740","GP_ID":"206065862","MEAN_ELEMENT_THEORY":"SGP4","BSTAR":"0.00021997000000","ARG_OF_PERICENTER":"69.7334","REV_AT_EPOCH":"6190","MEAN_ANOMALY":"290.3822","PERIAPSIS":"546.105","CLASSIFICATION_TYPE":"U","ECCENTRICITY":"0.00015570","APOAPSIS":"548.262","OBJECT_NAME":"STARLINK-2636","EPOCH":"2022-06-13T20:01:24.180096","TLE_LINE1":"1 48357U 21038E   22164.83430764  .00002997  00000-0  21997-3 0  9999","RCS_SIZE":"LARGE","RA_OF_ASC_NODE":"8.7307"},{"COUNTRY_CODE":"US","ELEMENT_SET_NO":"999","TLE_LINE2":"2 48358  53.0561   8.7149 0001687  44.1483 315.9640 15.06420832 61898","OBJECT_TYPE":"PAYLOAD","REF_FRAME":"TEME","DECAY_DATE":null,"EPHEMERIS_TYPE":"0","SITE":"AFETR","MEAN_MOTION_DOT":"-0.00003420","TIME_SYSTEM":"UTC","PERIOD":"95.591","LAUNCH_DATE":"2021-05-04","MEAN_MOTION_DDOT":"0.0000000000000","INCLINATION":"53.0561","OBJECT_ID":"2021-038F","SEMIMAJOR_AXIS":"6925.285","NORAD_CAT_ID":"48358","FILE":"3495205","BSTAR":"-0.00021067000000","GP_ID":"206075928","MEAN_ELEMENT_THEORY":"SGP4","MEAN_MOTION":"15.06420832","CENTER_NAME":"EARTH","ARG_OF_PERICENTER":"44.1483","REV_AT_EPOCH":"6189","ECCENTRICITY":"0.00016870","CLASSIFICATION_TYPE":"U","PERIAPSIS":"545.981","MEAN_ANOMALY":"315.9640","RA_OF_ASC_NODE":"8.7149","RCS_SIZE":"LARGE","TLE_LINE1":"1 48358U 21038F   22164.82786921 -.00003420  00000-0 -21067-3 0  9990","EPOCH":"2022-06-13T19:52:07.899744","OBJECT_NAME":"STARLINK-2624","APOAPSIS":"548.318"},{"LAUNCH_DATE":"2021-05-04","TIME_SYSTEM":"UTC","MEAN_MOTION_DOT":"0.00001546","PERIOD":"95.592","FILE":"3494801","NORAD_CAT_ID":"48359","SEMIMAJOR_AXIS":"6925.331","INCLINATION":"53.0553","OBJECT_ID":"2021-038G","MEAN_MOTION_DDOT":"0.0000000000000","TLE_LINE2":"2 48359  53.0553   8.7443 0001651  58.3244 301.7905 15.06405853 62546","OBJECT_TYPE":"PAYLOAD","ELEMENT_SET_NO":"999","COUNTRY_CODE":"US","SITE":"AFETR","EPHEMERIS_TYPE":"0","REF_FRAME":"TEME","DECAY_DATE":null,"MEAN_ANOMALY":"301.7905","PERIAPSIS":"546.052","ECCENTRICITY":"0.00016510","CLASSIFICATION_TYPE":"U","OBJECT_NAME":"STARLINK-2628","APOAPSIS":"548.339","RA_OF_ASC_NODE":"8.7443","EPOCH":"2022-06-13T19:46:50.446272","TLE_LINE1":"1 48359U 21038G   22164.82419498  .00001546  00000-0  12264-3 0  9997","RCS_SIZE":"LARGE","MEAN_MOTION":"15.06405853","CENTER_NAME":"EARTH","BSTAR":"0.00012264000000","GP_ID":"206065881","MEAN_ELEMENT_THEORY":"SGP4","ARG_OF_PERICENTER":"58.3244","REV_AT_EPOCH":"6254"},{"REF_FRAME":"TEME","DECAY_DATE":null,"EPHEMERIS_TYPE":"0","SITE":"AFETR","COUNTRY_CODE":"US","ELEMENT_SET_NO":"999","TLE_LINE2":"2 48360  53.0551   9.9616 0001598  68.8370 291.2790 15.06398218 61266","OBJECT_TYPE":"PAYLOAD","MEAN_MOTION_DDOT":"0.0000000000000","INCLINATION":"53.0551","OBJECT_ID":"2021-038H","SEMIMAJOR_AXIS":"6925.354","NORAD_CAT_ID":"48360","FILE":"3494620","MEAN_MOTION_DOT":"0.00001809","TIME_SYSTEM":"UTC","PERIOD":"95.592","LAUNCH_DATE":"2021-05-04","ARG_OF_PERICENTER":"68.8370","REV_AT_EPOCH":"6126","BSTAR":"0.00014029000000","GP_ID":"206058645","MEAN_ELEMENT_THEORY":"SGP4","MEAN_MOTION":"15.06398218","CENTER_NAME":"EARTH","RA_OF_ASC_NODE":"9.9616","TLE_LINE1":"1 48360U 21038H   22164.55512252  .00001809  00000-0  14029-3 0  9994","RCS_SIZE":"LARGE","EPOCH":"2022-06-13T13:19:22.585728","OBJECT_NAME":"STARLINK-2622","APOAPSIS":"548.326","ECCENTRICITY":"0.00015980","CLASSIFICATION_TYPE":"U","PERIAPSIS":"546.112","MEAN_ANOMALY":"291.2790"},{"MEAN_ANOMALY":"286.5835","PERIAPSIS":"546.179","CLASSIFICATION_TYPE":"U","ECCENTRICITY":"0.00014860","APOAPSIS":"548.237","OBJECT_NAME":"STARLINK-2591","TLE_LINE1":"1 48361U 21038J   22164.28604745  .00001875  00000-0  14476-3 0  9993","RCS_SIZE":"LARGE","EPOCH":"2022-06-13T06:51:54.499680","RA_OF_ASC_NODE":"11.1448","CENTER_NAME":"EARTH","MEAN_MOTION":"15.06401919","GP_ID":"206059896","MEAN_ELEMENT_THEORY":"SGP4","BSTAR":"0.00014476000000","ARG_OF_PERICENTER":"73.5317","REV_AT_EPOCH":"6122","LAUNCH_DATE":"2021-05-04","PERIOD":"95.592","MEAN_MOTION_DOT":"0.00001875","TIME_SYSTEM":"UTC","SEMIMAJOR_AXIS":"6925.343","NORAD_CAT_ID":"48361","FILE":"3494620","MEAN_MOTION_DDOT":"0.0000000000000","OBJECT_ID":"2021-038J","INCLINATION":"53.0566","ELEMENT_SET_NO":"999","OBJECT_TYPE":"PAYLOAD","TLE_LINE2":"2 48361  53.0566  11.1448 0001486  73.5317 286.5835 15.06401919 61227","COUNTRY_CODE":"US","EPHEMERIS_TYPE":"0","SITE":"AFETR","DECAY_DATE":null,"REF_FRAME":"TEME"},{"COUNTRY_CODE":"US","ELEMENT_SET_NO":"999","OBJECT_TYPE":"PAYLOAD","TLE_LINE2":"2 48362  53.0548  13.1636 0001655  61.4607 298.6547 15.04768957 61753","DECAY_DATE":null,"REF_FRAME":"TEME","EPHEMERIS_TYPE":"0","SITE":"AFETR","PERIOD":"95.696","MEAN_MOTION_DOT":"-0.00000174","TIME_SYSTEM":"UTC","LAUNCH_DATE":"2021-05-04","MEAN_MOTION_DDOT":"0.0000000000000","INCLINATION":"53.0548","OBJECT_ID":"2021-038K","SEMIMAJOR_AXIS":"6930.352","FILE":"3493980","NORAD_CAT_ID":"48362","GP_ID":"206023201","MEAN_ELEMENT_THEORY":"SGP4","BSTAR":"0.00000723580000","CENTER_NAME":"EARTH","MEAN_MOTION":"15.04768957","REV_AT_EPOCH":"6175","ARG_OF_PERICENTER":"61.4607","CLASSIFICATION_TYPE":"U","ECCENTRICITY":"0.00016550","PERIAPSIS":"551.070","MEAN_ANOMALY":"298.6547","TLE_LINE1":"1 48362U 21038K   22163.85214177 -.00000174  00000-0  72358-5 0  9999","RCS_SIZE":"LARGE","EPOCH":"2022-06-12T20:27:05.048928","RA_OF_ASC_NODE":"13.1636","APOAPSIS":"553.364","OBJECT_NAME":"STARLINK-2578"},{"MEAN_MOTION_DDOT":"0.0000000000000","OBJECT_ID":"2021-038L","INCLINATION":"53.0562","SEMIMAJOR_AXIS":"6925.334","FILE":"3494620","NORAD_CAT_ID":"48363","PERIOD":"95.592","MEAN_MOTION_DOT":"0.00000731","TIME_SYSTEM":"UTC","LAUNCH_DATE":"2021-05-04","DECAY_DATE":null,"REF_FRAME":"TEME","EPHEMERIS_TYPE":"0","SITE":"AFETR","COUNTRY_CODE":"US","ELEMENT_SET_NO":"999","OBJECT_TYPE":"PAYLOAD","TLE_LINE2":"2 48363  53.0562   6.2617 0001504  82.7603 277.3557 15.06404609 61294","RCS_SIZE":"LARGE","TLE_LINE1":"1 48363U 21038L   22164.26255089  .00000731  00000-0  67930-4 0  9990","EPOCH":"2022-06-13T06:18:04.396896","RA_OF_ASC_NODE":"6.2617","APOAPSIS":"548.241","OBJECT_NAME":"STARLINK-2626","CLASSIFICATION_TYPE":"U","ECCENTRICITY":"0.00015040","PERIAPSIS":"546.158","MEAN_ANOMALY":"277.3557","REV_AT_EPOCH":"6129","ARG_OF_PERICENTER":"82.7603","MEAN_ELEMENT_THEORY":"SGP4","GP_ID":"206058395","BSTAR":"0.00006793000000","CENTER_NAME":"EARTH","MEAN_MOTION":"15.06404609"},{"FILE":"3494620","NORAD_CAT_ID":"48364","SEMIMAJOR_AXIS":"6925.363","INCLINATION":"53.0537","OBJECT_ID":"2021-038M","MEAN_MOTION_DDOT":"0.0000000000000","LAUNCH_DATE":"2021-05-04","TIME_SYSTEM":"UTC","MEAN_MOTION_DOT":"0.00001960","PERIOD":"95.592","SITE":"AFETR","EPHEMERIS_TYPE":"0","REF_FRAME":"TEME","DECAY_DATE":null,"TLE_LINE2":"2 48364  53.0537   6.3966 0001465  71.4890 288.6258 15.06395432 61290","OBJECT_TYPE":"PAYLOAD","ELEMENT_SET_NO":"999","COUNTRY_CODE":"US","OBJECT_NAME":"STARLINK-2611","APOAPSIS":"548.242","RA_OF_ASC_NODE":"6.3966","EPOCH":"2022-06-13T06:39:20.743488","TLE_LINE1":"1 48364U 21038M   22164.27732342  .00001960  00000-0  15046-3 0  9999","RCS_SIZE":"LARGE","MEAN_ANOMALY":"288.6258","PERIAPSIS":"546.213","ECCENTRICITY":"0.00014650","CLASSIFICATION_TYPE":"U","REV_AT_EPOCH":"6129","ARG_OF_PERICENTER":"71.4890","MEAN_MOTION":"15.06395432","CENTER_NAME":"EARTH","BSTAR":"0.00015046000000","MEAN_ELEMENT_THEORY":"SGP4","GP_ID":"206059145"},{"SITE":"AFETR","EPHEMERIS_TYPE":"0","REF_FRAME":"TEME","DECAY_DATE":null,"TLE_LINE2":"2 48365  53.0546   7.5807 0001427  85.4868 274.6284 15.06404722 61259","OBJECT_TYPE":"PAYLOAD","ELEMENT_SET_NO":"999","COUNTRY_CODE":"US","FILE":"3494620","NORAD_CAT_ID":"48365","SEMIMAJOR_AXIS":"6925.334","OBJECT_ID":"2021-038N","INCLINATION":"53.0546","MEAN_MOTION_DDOT":"0.0000000000000","LAUNCH_DATE":"2021-05-04","TIME_SYSTEM":"UTC","MEAN_MOTION_DOT":"-0.00000085","PERIOD":"95.592","REV_AT_EPOCH":"6125","ARG_OF_PERICENTER":"85.4868","MEAN_MOTION":"15.06404722","CENTER_NAME":"EARTH","BSTAR":"0.00001321500000","GP_ID":"206059397","MEAN_ELEMENT_THEORY":"SGP4","OBJECT_NAME":"STARLINK-2608","APOAPSIS":"548.187","RA_OF_ASC_NODE":"7.5807","EPOCH":"2022-06-12T23:18:45.869472","TLE_LINE1":"1 48365U 21038N   22163.97136423 -.00000085  00000-0  13215-4 0  9999","RCS_SIZE":"LARGE","MEAN_ANOMALY":"274.6284","PERIAPSIS":"546.211","ECCENTRICITY":"0.00014270","CLASSIFICATION_TYPE":"U"},{"ARG_OF_PERICENTER":"84.1570","REV_AT_EPOCH":"6203","BSTAR":"0.00016866000000","MEAN_ELEMENT_THEORY":"SGP4","GP_ID":"206065944","MEAN_MOTION":"15.06417609","CENTER_NAME":"EARTH","RA_OF_ASC_NODE":"358.7576","EPOCH":"2022-06-13T19:42:52.098912","TLE_LINE1":"1 48366U 21038P   22164.82143633  .00002233  00000-0  16866-3 0  9996","RCS_SIZE":"LARGE","OBJECT_NAME":"STARLINK-2631","APOAPSIS":"548.180","ECCENTRICITY":"0.00014730","CLASSIFICATION_TYPE":"U","PERIAPSIS":"546.139","MEAN_ANOMALY":"275.9587","REF_FRAME":"TEME","DECAY_DATE":null,"SITE":"AFETR","EPHEMERIS_TYPE":"0","COUNTRY_CODE":"US","OBJECT_TYPE":"PAYLOAD","TLE_LINE2":"2 48366  53.0561 358.7576 0001473  84.1570 275.9587 15.06417609 62033","ELEMENT_SET_NO":"999","OBJECT_ID":"2021-038P","INCLINATION":"53.0561","MEAN_MOTION_DDOT":"0.0000000000000","FILE":"3494813","NORAD_CAT_ID":"48366","SEMIMAJOR_AXIS":"6925.295","TIME_SYSTEM":"UTC","MEAN_MOTION_DOT":"0.00002233","PERIOD":"95.591","LAUNCH_DATE":"2021-05-04"}];
